STARLINK-1458           
1 45675U 20035U   26157.23269749  .00099277  00000+0  13530-2 0  9997
2 45675  53.0471 350.8949 0002085  70.3293 289.7943 15.56751920332580
STARLINK-1460           
1 45676U 20035V   26156.88460088  .00070190  00000+0  20371-2 0  9991
2 45676  53.1570  14.3585 0003050 153.6051 206.5107 15.34889861332233
STARLINK-1392           
1 45677U 20035W   26157.29657544  .00072195  00000+0  18814-2 0  9999
2 45677  53.1535  11.0993 0002288 169.2728 190.8325 15.38226843332357
STARLINK-1394           
1 45679U 20035Y   26156.13521102  .00066312  00000+0  66228-3 0  9990
2 45679  53.0412 332.0659 0004218 158.3287 201.7907 15.65015831332789
STARLINK-1402           
1 45685U 20035AE  26157.15564683  .00070031  00000+0  92787-3 0  9993
2 45685  53.0418 317.7840 0004897 187.0904 173.0038 15.57653669333080
STARLINK-1404           
1 45686U 20035AF  26156.84359964  .00090146  00000+0  19086-2 0  9992
2 45686  53.1574 354.9630 0003335 171.0847 189.0220 15.44377799332543
STARLINK-1413           
1 45689U 20035AJ  26157.24903625  .00074511  00000+0  21578-2 0  9996
2 45689  53.1576 357.2991 0002016 188.2214 171.8756 15.34932383332466
STARLINK-1417           
1 45693U 20035AN  26156.81918234  .00035570  00000+0  17981-2 0  9990
2 45693  53.0517  13.5652 0005283 126.1419 234.0064 15.16740035332250
STARLINK-1420           
1 45695U 20035AQ  26155.64417959  .00057531  00000+0  51480-3 0  9994
2 45695  53.0461 317.7194 0003956 118.9382 241.2031 15.67810360332948
STARLINK-1422           
1 45696U 20035AR  26157.25226368  .00060867  00000+0  17743-2 0  9995
2 45696  53.1559 357.2342 0002222 152.4540 207.6581 15.34817871332546
STARLINK-1351           
1 45697U 20035AS  26157.12942164  .00068675  00000+0  65152-3 0  9994
2 45697  53.0437 310.8040 0003143 137.8586 222.2671 15.66293033333177
STARLINK-1400           
1 45700U 20035AV  26157.58921479  .00055669  00000+0  55657-3 0  9993
2 45700  53.0429 311.0973 0001794  57.1956 302.9231 15.65069155333203
STARLINK-1403           
1 45701U 20035AW  26156.80787878  .00055656  00000+0  16769-2 0  9997
2 45701  53.1558 346.8418 0001787 185.6018 174.4965 15.33814684332649
STARLINK-1407           
1 45703U 20035AY  26157.52135695  .00084462  00000+0  58493-3 0  9991
2 45703  53.0265 238.0759 0006263  24.5512 335.5803 15.73774754334223
STARLINK-1411           
1 45706U 20035BB  26157.66668981  .00507074  11155-3  14780-2 0  9994
2 45706  53.0285 258.8196 0010216 339.3841  86.8925 15.92224688  6020
STARLINK-1423           
1 45710U 20035BF  26157.14184818  .00081747  00000+0  69270-3 0  9996
2 45710  53.0437 309.7865 0005338  89.1174 271.0454 15.68991853333173
STARLINK-1433           
1 45711U 20035BG  26157.63655279  .00067912  00000+0  58638-3 0  9999
2 45711  53.0435 305.9423 0005166  96.6347 263.5257 15.68611057333277
STARLINK-1434           
1 45712U 20035BH  26157.17474276  .00067485  00000+0  19968-2 0  9992
2 45712  53.0497 327.7207 0001241  78.1863 281.9277 15.34298594332945
STARLINK-1465           
1 45731U 20038B   26157.66668981 -.00040364  00000+0 -34899-3 0  9998
2 45731  53.0436 151.3765 0001433  79.8097  18.6549 15.68351580  5912
STARLINK-1471           
1 45735U 20038F   26157.62021253  .00032526  00000+0  50891-3 0  9992
2 45735  53.0445  74.4440 0003053 114.8671 245.2656 15.53481556331335
STARLINK-1480           
1 45741U 20038M   26157.24884438  .00064232  00000+0  63743-3 0  9998
2 45741  53.0467 147.1053 0006422  27.5816 332.5538 15.65175894330288
STARLINK-1500           
1 45744U 20038Q   26157.62746028  .00031316  00000+0  80165-3 0  9999
2 45744  53.0339 134.1022 0001991 114.9968 245.1242 15.39156212330494
STARLINK-1504           
1 45746U 20038S   26156.93318976  .00045674  00000+0  58078-3 0  9991
2 45746  53.0205  74.5692 0003508  98.8510 261.2899 15.58936037331251
STARLINK-1506           
1 45747U 20038T   26157.26041141  .00010499  00000+0  38799-3 0  9991
2 45747  53.0744 151.9424 0002252 156.1654 203.9450 15.28290661330220
STARLINK-1464           
1 45751U 20038X   26157.19768552  .00036274  00000+0  55457-3 0  9999
2 45751  53.0457 140.3027 0004555  35.8039 324.3275 15.54060886330377
STARLINK-1477           
1 45754U 20038AA  26157.33207433  .00032648  00000+0  15556-2 0  9990
2 45754  53.0479 168.6432 0002252 349.6470  10.4477 15.18854671329989
STARLINK-1478           
1 45755U 20038AB  26157.61277824  .00070983  00000+0  62018-3 0  9993
2 45755  53.0443 123.1749 0004790  69.5746 290.5784 15.68306286330636
STARLINK-1493           
1 45759U 20038AF  26157.56924441  .00059928  00000+0  60128-3 0  9991
2 45759  53.0454 133.0482 0006977  26.7201 333.4171 15.64924105330499
STARLINK-1494           
1 45760U 20038AG  26157.43906347  .00785143  34852-3  82141-3 0  9994
2 45760  53.0357  61.8254 0003112 218.6910 141.3901 16.09887519331489
STARLINK-1502           
1 45764U 20038AL  26157.10641673  .00133202  00000+0  15116-2 0  9994
2 45764  53.0440 139.0871 0005607 358.5556   1.5440 15.61431061330387
