OBJECT_NAME,OBJECT_ID,EPOCH,MEAN_MOTION,ECCENTRICITY,INCLINATION,RA_OF_ASC_NODE,ARG_OF_PERICENTER,MEAN_ANOMALY,EPHEMERIS_TYPE,CLASSIFICATION_TYPE,NORAD_CAT_ID,ELEMENT_SET_NO,REV_AT_EPOCH,BSTAR,MEAN_MOTION_DOT,MEAN_MOTION_DDOT
STARLINK-1458,2020-035U,2026-06-06T05:35:05.063136,15.56751920,.00020852,53.0471,350.8949,70.3293,289.7943,0,U,45675,999,33258,.13530338E-2,.99277E-3,0
STARLINK-1460,2020-035V,2026-06-05T21:13:49.516032,15.34889861,.000305,53.1570,14.3585,153.6051,206.5107,0,U,45676,999,33223,.20371E-2,.7019E-3,0
STARLINK-1392,2020-035W,2026-06-06T07:07:04.118016,15.38226843,.00022881,53.1535,11.0993,169.2728,190.8325,0,U,45677,999,33235,.18814135E-2,.72195E-3,0
STARLINK-1394,2020-035Y,2026-06-05T03:14:42.232128,15.65015831,.00042184,53.0412,332.0659,158.3287,201.7907,0,U,45679,999,33278,.66228283E-3,.66312E-3,0
STARLINK-1402,2020-035AE,2026-06-06T03:44:07.886112,15.57653669,.0004897,53.0418,317.7840,187.0904,173.0038,0,U,45685,999,33308,.92787E-3,.70031E-3,0
STARLINK-1404,2020-035AF,2026-06-05T20:14:47.008896,15.44377799,.0003335,53.1574,354.9630,171.0847,189.0220,0,U,45686,999,33254,.19086333E-2,.90146E-3,0
STARLINK-1413,2020-035AJ,2026-06-06T05:58:36.732000,15.34932383,.00020162,53.1576,357.2991,188.2214,171.8756,0,U,45689,999,33246,.21577815E-2,.74511E-3,0
STARLINK-1417,2020-035AN,2026-06-05T19:39:37.354176,15.16740035,.00052834,53.0517,13.5652,126.1419,234.0064,0,U,45693,999,33225,.17981286E-2,.3557E-3,0
STARLINK-1420,2020-035AQ,2026-06-04T15:27:37.116576,15.67810360,.00039568,53.0461,317.7194,118.9382,241.2031,0,U,45695,999,33294,.514804E-3,.57531E-3,0
STARLINK-1422,2020-035AR,2026-06-06T06:03:15.581952,15.34817871,.00022228,53.1559,357.2342,152.4540,207.6581,0,U,45696,999,33254,.17742787E-2,.60867E-3,0
STARLINK-1351,2020-035AS,2026-06-06T03:06:22.029696,15.66293033,.0003143,53.0437,310.8040,137.8586,222.2671,0,U,45697,999,33317,.65152E-3,.68675E-3,0
STARLINK-1400,2020-035AV,2026-06-06T14:08:28.157856,15.65069155,.00017947,53.0429,311.0973,57.1956,302.9231,0,U,45700,999,33320,.55657127E-3,.55669E-3,0
STARLINK-1403,2020-035AW,2026-06-05T19:23:20.726592,15.33814684,.00017878,53.1558,346.8418,185.6018,174.4965,0,U,45701,999,33264,.16769146E-2,.55656E-3,0
STARLINK-1407,2020-035AY,2026-06-06T12:30:45.240480,15.73774754,.0006263,53.0265,238.0759,24.5512,335.5803,0,U,45703,999,33422,.58492721E-3,.84462E-3,0
STARLINK-1411,2020-035BB,2026-06-06T16:00:01.999584,15.92224688,.00102162,53.0285,258.8196,339.3841,86.8925,0,U,45706,999,602,.14780266E-2,.507074E-2,.1115489E-3
STARLINK-1423,2020-035BF,2026-06-06T03:24:15.682752,15.68991853,.0005338,53.0437,309.7865,89.1174,271.0454,0,U,45710,999,33317,.6927E-3,.81747E-3,0
STARLINK-1433,2020-035BG,2026-06-06T15:16:38.161056,15.68611057,.00051668,53.0435,305.9423,96.6347,263.5257,0,U,45711,999,33327,.58637974E-3,.67912E-3,0
STARLINK-1434,2020-035BH,2026-06-06T04:11:37.774464,15.34298594,.00012417,53.0497,327.7207,78.1863,281.9277,0,U,45712,999,33294,.19968331E-2,.67485E-3,0
STARLINK-1465,2020-038B,2026-06-06T16:00:01.999584,15.68351580,.00014332,53.0436,151.3765,79.8097,18.6549,0,U,45731,999,591,-.34898916E-3,-.40364E-3,0
STARLINK-1471,2020-038F,2026-06-06T14:53:06.362592,15.53481556,.00030538,53.0445,74.4440,114.8671,245.2656,0,U,45735,999,33133,.50891134E-3,.32526E-3,0
STARLINK-1480,2020-038M,2026-06-06T05:58:20.154432,15.65175894,.00064229,53.0467,147.1053,27.5816,332.5538,0,U,45741,999,33028,.63743168E-3,.64232E-3,0
STARLINK-1500,2020-038Q,2026-06-06T15:03:32.568192,15.39156212,.00019917,53.0339,134.1022,114.9968,245.1242,0,U,45744,999,33049,.80165148E-3,.31316E-3,0
STARLINK-1504,2020-038S,2026-06-05T22:23:47.595264,15.58936037,.00035085,53.0205,74.5692,98.8510,261.2899,0,U,45746,999,33125,.58077931E-3,.45674E-3,0
STARLINK-1506,2020-038T,2026-06-06T06:14:59.545824,15.28290661,.00022521,53.0744,151.9424,156.1654,203.9450,0,U,45747,999,33022,.38798561E-3,.10499E-3,0
STARLINK-1464,2020-038X,2026-06-06T04:44:40.028928,15.54060886,.00045558,53.0457,140.3027,35.8039,324.3275,0,U,45751,999,33037,.55456706E-3,.36274E-3,0
STARLINK-1477,2020-038AA,2026-06-06T07:58:11.222112,15.18854671,.00022522,53.0479,168.6432,349.6470,10.4477,0,U,45754,999,32998,.15556424E-2,.32648E-3,0
STARLINK-1478,2020-038AB,2026-06-06T14:42:24.039936,15.68306286,.00047907,53.0443,123.1749,69.5746,290.5784,0,U,45755,999,33063,.62018011E-3,.70983E-3,0
STARLINK-1493,2020-038AF,2026-06-06T13:39:42.717024,15.64924105,.00069779,53.0454,133.0482,26.7201,333.4171,0,U,45759,999,33049,.60128169E-3,.59928E-3,0
STARLINK-1494,2020-038AG,2026-06-06T10:32:15.083808,16.09887519,.00031129,53.0357,61.8254,218.6910,141.3901,0,U,45760,999,33148,.82140536E-3,.785143E-2,.34851518E-3
STARLINK-1502,2020-038AL,2026-06-06T02:33:14.405472,15.61431061,.00056076,53.0440,139.0871,358.5556,1.5440,0,U,45764,999,33038,.15116029E-2,.133202E-2,0
